CCSDS_OMM_VERS = 2.0
CREATION_DATE  = 
ORIGINATOR     = 

OBJECT_NAME    = KNACKSAT-2
OBJECT_ID      = 1998-067XZ
CENTER_NAME    = EARTH
REF_FRAME      = TEME
TIME_SYSTEM    = UTC
MEAN_ELEMENT_THEORY = SGP/SGP4

EPOCH          = 2026-03-15T21:48:29.340288
MEAN_MOTION    = 15.52379780
ECCENTRICITY   = .00096388
INCLINATION    = 51.6312
RA_OF_ASC_NODE = 40.9357
ARG_OF_PERICENTER = 207.7517
MEAN_ANOMALY   = 152.2960

EPHEMERIS_TYPE = 0
CLASSIFICATION_TYPE = U
NORAD_CAT_ID   = 67683
ELEMENT_SET_NO = 999
REV_AT_EPOCH   = 575
BSTAR          = .62705577E-3
MEAN_MOTION_DOT = .38745E-3
MEAN_MOTION_DDOT = 0

CCSDS_OMM_VERS = 2.0
CREATION_DATE  = 
ORIGINATOR     = 

OBJECT_NAME    = GXIBA-1
OBJECT_ID      = 1998-067YA
CENTER_NAME    = EARTH
REF_FRAME      = TEME
TIME_SYSTEM    = UTC
MEAN_ELEMENT_THEORY = SGP/SGP4

EPOCH          = 2026-03-15T22:25:50.029248
MEAN_MOTION    = 15.55425498
ECCENTRICITY   = .00115342
INCLINATION    = 51.6302
RA_OF_ASC_NODE = 40.3592
ARG_OF_PERICENTER = 197.4309
MEAN_ANOMALY   = 162.6288

EPHEMERIS_TYPE = 0
CLASSIFICATION_TYPE = U
NORAD_CAT_ID   = 67684
ELEMENT_SET_NO = 999
REV_AT_EPOCH   = 576
BSTAR          = .10787032E-2
MEAN_MOTION_DOT = .75308E-3
MEAN_MOTION_DDOT = 0

CCSDS_OMM_VERS = 2.0
CREATION_DATE  = 
ORIGINATOR     = 

OBJECT_NAME    = CORAL
OBJECT_ID      = 1998-067YB
CENTER_NAME    = EARTH
REF_FRAME      = TEME
TIME_SYSTEM    = UTC
MEAN_ELEMENT_THEORY = SGP/SGP4

EPOCH          = 2026-03-15T04:40:23.786400
MEAN_MOTION    = 15.52739690
ECCENTRICITY   = .00115347
INCLINATION    = 51.6319
RA_OF_ASC_NODE = 44.4177
ARG_OF_PERICENTER = 201.7026
MEAN_ANOMALY   = 158.3476

EPHEMERIS_TYPE = 0
CLASSIFICATION_TYPE = U
NORAD_CAT_ID   = 67685
ELEMENT_SET_NO = 999
REV_AT_EPOCH   = 564
BSTAR          = .82450602E-3
MEAN_MOTION_DOT = .51896E-3
MEAN_MOTION_DDOT = 0

CCSDS_OMM_VERS = 2.0
CREATION_DATE  = 
ORIGINATOR     = 

OBJECT_NAME    = ISS OBJECT YC
OBJECT_ID      = 1998-067YC
CENTER_NAME    = EARTH
REF_FRAME      = TEME
TIME_SYSTEM    = UTC
MEAN_ELEMENT_THEORY = SGP/SGP4

EPOCH          = 2026-03-15T21:28:24.140640
MEAN_MOTION    = 15.53475021
ECCENTRICITY   = .00083231
INCLINATION    = 51.6316
RA_OF_ASC_NODE = 40.8451
ARG_OF_PERICENTER = 173.1262
MEAN_ANOMALY   = 186.9844

EPHEMERIS_TYPE = 0
CLASSIFICATION_TYPE = U
NORAD_CAT_ID   = 67686
ELEMENT_SET_NO = 999
REV_AT_EPOCH   = 575
BSTAR          = .78390007E-3
MEAN_MOTION_DOT = .50583E-3
MEAN_MOTION_DDOT = 0

CCSDS_OMM_VERS = 2.0
CREATION_DATE  = 
ORIGINATOR     = 

OBJECT_NAME    = LEOPARD
OBJECT_ID      = 1998-067YD
CENTER_NAME    = EARTH
REF_FRAME      = TEME
TIME_SYSTEM    = UTC
MEAN_ELEMENT_THEORY = SGP/SGP4

EPOCH          = 2026-03-15T23:16:42.746016
MEAN_MOTION    = 15.52581437
ECCENTRICITY   = .00081556
INCLINATION    = 51.6315
RA_OF_ASC_NODE = 40.5968
ARG_OF_PERICENTER = 177.1771
MEAN_ANOMALY   = 182.9267

EPHEMERIS_TYPE = 0
CLASSIFICATION_TYPE = U
NORAD_CAT_ID   = 67687
ELEMENT_SET_NO = 999
REV_AT_EPOCH   = 568
BSTAR          = .60567073E-3
MEAN_MOTION_DOT = .37658E-3
MEAN_MOTION_DDOT = 0

CCSDS_OMM_VERS = 2.0
CREATION_DATE  = 
ORIGINATOR     = 

OBJECT_NAME    = ISS OBJECT YE
OBJECT_ID      = 1998-067YE
CENTER_NAME    = EARTH
REF_FRAME      = TEME
TIME_SYSTEM    = UTC
MEAN_ELEMENT_THEORY = SGP/SGP4

EPOCH          = 2026-03-15T04:34:24.545568
MEAN_MOTION    = 15.53094941
ECCENTRICITY   = .00082552
INCLINATION    = 51.6315
RA_OF_ASC_NODE = 44.3921
ARG_OF_PERICENTER = 171.8524
MEAN_ANOMALY   = 188.2602

EPHEMERIS_TYPE = 0
CLASSIFICATION_TYPE = U
NORAD_CAT_ID   = 67688
ELEMENT_SET_NO = 999
REV_AT_EPOCH   = 556
BSTAR          = .89872899E-3
MEAN_MOTION_DOT = .57311E-3
MEAN_MOTION_DDOT = 0

CCSDS_OMM_VERS = 2.0
CREATION_DATE  = 
ORIGINATOR     = 

OBJECT_NAME    = CREW DRAGON 12
OBJECT_ID      = 2026-031A
CENTER_NAME    = EARTH
REF_FRAME      = TEME
TIME_SYSTEM    = UTC
MEAN_ELEMENT_THEORY = SGP/SGP4

EPOCH          = 2026-03-15T20:06:35.309952
MEAN_MOTION    = 15.48299420
ECCENTRICITY   = .00063362
INCLINATION    = 51.6331
RA_OF_ASC_NODE = 41.9615
ARG_OF_PERICENTER = 194.9995
MEAN_ANOMALY   = 165.0806

EPHEMERIS_TYPE = 0
CLASSIFICATION_TYPE = U
NORAD_CAT_ID   = 67796
ELEMENT_SET_NO = 999
REV_AT_EPOCH   = 55718
BSTAR          = .15761534E-3
MEAN_MOTION_DOT = .8038E-4
MEAN_MOTION_DDOT = 0

